FENGYUN 1C DEB          
1 38169U 99025ERS 17345.64145976  .00000645  00000-0  24831-3 0  9990
2 38169  98.9976 127.5717 0057107  64.1515 296.5542 14.33012144191769
